OBJECT_NAME,OBJECT_ID,EPOCH,MEAN_MOTION,ECCENTRICITY,INCLINATION,RA_OF_ASC_NODE,ARG_OF_PERICENTER,MEAN_ANOMALY,EPHEMERIS_TYPE,CLASSIFICATION_TYPE,NORAD_CAT_ID,ELEMENT_SET_NO,REV_AT_EPOCH,BSTAR,MEAN_MOTION_DOT,MEAN_MOTION_DDOT
INTELSAT 23 (IS-23),2012-057A,2026-06-27T04:17:38.757120,1.00271327,.0000234,0.0109,34.7254,124.5237,127.4437,0,U,38867,999,5005,0,-.273E-5,0
FM-6,2013-058A,2026-06-27T03:43:38.676864,1.00271035,.0001641,0.0161,44.1942,136.4962,34.1859,0,U,39360,999,4617,0,-.4E-7,0
INTELSAT 30 (IS-30),2014-062A,2026-06-27T03:29:49.102080,1.00271975,.0001502,0.0237,49.1135,345.5401,198.0098,0,U,40271,999,689,0,-.139E-5,0
DIRECTV 14,2014-078B,2026-06-27T03:28:49.198368,1.00271001,.0000271,0.0109,18.7265,23.4461,186.0549,0,U,40333,999,4214,0,-.114E-5,0
DIRECTV 15,2015-026A,2026-06-27T03:27:49.292064,1.00272582,.0000425,0.0167,58.7063,10.0991,155.5353,0,U,40663,999,4056,0,-.91E-6,0
SKY MEXICO-1,2015-026B,2026-06-27T04:33:38.623968,1.00272001,.0002591,0.0154,341.9092,130.6397,152.3678,0,U,40664,999,4055,0,-.223E-5,0
INTELSAT 34 (IS-34),2015-039A,2026-06-27T03:03:38.738016,1.00273561,.0000622,0.0102,13.0827,29.5062,223.0656,0,U,40874,999,3973,0,-.274E-5,0
INTELSAT 31 (IS-31),2016-035A,2026-06-27T03:29:49.102080,1.00271659,.0000598,0.0144,287.9612,337.3395,327.3625,0,U,41581,999,3678,0,-.139E-5,0
INTELSAT 36 (IS-36),2016-053A,2026-06-26T20:19:51.545568,1.00266822,.00017395,0.0108,13.4633,328.7334,306.2396,0,U,41747,999,3605,0,-.12E-6,0
INTELSAT 32E (IS-32E),2017-007B,2026-06-27T03:44:50.132256,1.00270867,.000059,0.0065,35.0163,325.5426,287.7360,0,U,41945,999,3432,0,-.257E-5,0
INTELSAT 35E (IS-35E),2017-041A,2026-06-27T05:38:00.322080,1.00269079,.0002393,0.0278,25.1749,72.4170,227.7690,0,U,42818,999,3291,0,0,0
INTELSAT 37E (IS-37E),2017-059A,2026-06-27T03:51:56.949120,1.00271499,.0002893,0.0043,88.3882,6.2338,220.6422,0,U,42950,999,3216,0,-.129E-5,0
AZERSPACE 2 (IS-38),2018-074A,2026-06-27T04:09:55.227168,1.00270667,.0001709,0.0274,17.8346,80.2276,284.8179,0,U,43632,999,2854,0,0,0
HORIZONS-3E,2018-074B,2026-06-26T21:54:40.856832,1.00268864,.0000627,0.0051,291.0865,17.8683,103.7557,0,U,43633,999,2843,0,-.19E-6,0
AT&T T-16,2019-034A,2026-06-27T03:28:19.245216,1.00270432,.0000384,0.0172,59.8630,274.6069,252.0117,0,U,44333,999,2573,0,-.104E-5,0
INTELSAT 39 (IS-39),2019-049B,2026-06-27T04:14:39.771744,1.00270156,.0000895,0.0261,10.2979,340.7590,49.8511,0,U,44476,999,2522,0,0,0
GALAXY 30 (G-30),2020-056C,2026-06-27T02:29:38.580864,1.00270921,.0002306,0.0282,20.8608,73.7740,92.9796,0,U,46114,999,2139,0,0,0
GALAXY 33 (G-33),2022-128A,2026-06-27T05:37:52.095936,1.00271665,.0002077,0.0045,359.8968,92.0496,134.8665,0,U,54026,999,1384,0,.91E-6,0
GALAXY 34 (G-34),2022-128B,2026-06-27T02:37:38.764416,1.00267712,.0001949,0.0106,40.0248,59.0162,86.5883,0,U,54027,999,1401,0,.71E-6,0
GALAXY 31 (G-31),2022-153A,2026-06-27T02:29:38.580864,1.00270011,.0001659,0.0202,25.5719,75.5418,90.5120,0,U,54243,999,723,0,0,0
GALAXY 32 (G-32),2022-153B,2026-06-27T03:31:11.468928,1.00271923,.000207,0.0132,33.1835,14.2142,189.6632,0,U,54244,999,1324,0,-.163E-5,0
GALAXY 35 (G-35),2022-170A,2026-06-27T04:41:38.568192,1.00269512,.0002229,0.0194,14.7684,80.8747,156.9672,0,U,54741,999,1299,0,0,0
GALAXY 36 (G-36),2022-170B,2026-06-27T03:31:41.422080,1.00271496,.0002887,0.0347,120.3355,328.9772,149.8739,0,U,54742,999,1287,0,-.174E-5,0
GALAXY 37 (G-37),2023-112A,2026-06-27T02:37:38.764416,1.00271964,.0002254,0.0155,53.7139,39.5005,94.4213,0,U,57493,999,1064,0,.6E-6,0
