INTELSAT 23 (IS-23)     
1 38867U 12057A   26178.17892080 -.00000273  00000+0  00000+0 0  9997
2 38867   0.0109  34.7254 0000234 124.5237 127.4437  1.00271327 50053
FM-6                    
1 39360U 13058A   26178.15530876 -.00000004  00000+0  00000+0 0  9990
2 39360   0.0161  44.1942 0001641 136.4962  34.1859  1.00271035 46175
INTELSAT 30 (IS-30)     
1 40271U 14062A   26178.14570720 -.00000139  00000+0  00000+0 0  9999
2 40271   0.0237  49.1135 0001502 345.5401 198.0098  1.00271975  6891
DIRECTV 14              
1 40333U 14078B   26178.14501387 -.00000114  00000+0  00000+0 0  9991
2 40333   0.0109  18.7265 0000271  23.4461 186.0549  1.00271001 42140
DIRECTV 15              
1 40663U 15026A   26178.14432051 -.00000091  00000+0  00000+0 0  9996
2 40663   0.0167  58.7063 0000425  10.0991 155.5353  1.00272582 40564
SKY MEXICO-1            
1 40664U 15026B   26178.19003037 -.00000223  00000+0  00000+0 0  9997
2 40664   0.0154 341.9092 0002591 130.6397 152.3678  1.00272001 40555
INTELSAT 34 (IS-34)     
1 40874U 15039A   26178.12753169 -.00000274  00000+0  00000+0 0  9991
2 40874   0.0102  13.0827 0000622  29.5062 223.0656  1.00273561 39734
INTELSAT 31 (IS-31)     
1 41581U 16035A   26178.14570720 -.00000139  00000+0  00000+0 0  9996
2 41581   0.0144 287.9612 0000598 337.3395 327.3625  1.00271659 36783
INTELSAT 36 (IS-36)     
1 41747U 16053A   26177.84712437 -.00000012  00000+0  00000+0 0  9999
2 41747   0.0108  13.4633 0001739 328.7334 306.2396  1.00266822 36054
INTELSAT 32E (IS-32E)   
1 41945U 17007B   26178.15613579 -.00000257  00000+0  00000+0 0  9992
2 41945   0.0065  35.0163 0000590 325.5426 287.7360  1.00270867 34321
INTELSAT 35E (IS-35E)   
1 42818U 17041A   26178.23472595  .00000000  00000+0  00000+0 0  9995
2 42818   0.0278  25.1749 0002393  72.4170 227.7690  1.00269079 32910
INTELSAT 37E (IS-37E)   
1 42950U 17059A   26178.16107580 -.00000129  00000+0  00000+0 0  9995
2 42950   0.0043  88.3882 0002893   6.2338 220.6422  1.00271499 32163
AZERSPACE 2 (IS-38)     
1 43632U 18074A   26178.17355587  .00000000  00000+0  00000+0 0  9991
2 43632   0.0274  17.8346 0001709  80.2276 284.8179  1.00270667 28541
HORIZONS-3E             
1 43633U 18074B   26177.91297288 -.00000019  00000+0  00000+0 0  9997
2 43633   0.0051 291.0865 0000627  17.8683 103.7557  1.00268864 28436
AT&T T-16               
1 44333U 19034A   26178.14466719 -.00000104  00000+0  00000+0 0  9990
2 44333   0.0172  59.8630 0000384 274.6069 252.0117  1.00270432 25733
INTELSAT 39 (IS-39)     
1 44476U 19049B   26178.17684921  .00000000  00000+0  00000+0 0  9998
2 44476   0.0261  10.2979 0000895 340.7590  49.8511  1.00270156 25225
GALAXY 30 (G-30)        
1 46114U 20056C   26178.10391876  .00000000  00000+0  00000+0 0  9996
2 46114   0.0282  20.8608 0002306  73.7740  92.9796  1.00270921 21392
GALAXY 33 (G-33)        
1 54026U 22128A   26178.23463074  .00000091  00000+0  00000+0 0  9993
2 54026   0.0045 359.8968 0002077  92.0496 134.8665  1.00271665 13849
GALAXY 34 (G-34)        
1 54027U 22128B   26178.10947644  .00000071  00000+0  00000+0 0  9998
2 54027   0.0106  40.0248 0001949  59.0162  86.5883  1.00267712 14011
GALAXY 31 (G-31)        
1 54243U 22153A   26178.10391876  .00000000  00000+0  00000+0 0  9998
2 54243   0.0202  25.5719 0001659  75.5418  90.5120  1.00270011  7235
GALAXY 32 (G-32)        
1 54244U 22153B   26178.14666052 -.00000163  00000+0  00000+0 0  9995
2 54244   0.0132  33.1835 0002070  14.2142 189.6632  1.00271923 13243
GALAXY 35 (G-35)        
1 54741U 22170A   26178.19558528  .00000000  00000+0  00000+0 0  9998
2 54741   0.0194  14.7684 0002229  80.8747 156.9672  1.00269512 12999
GALAXY 36 (G-36)        
1 54742U 22170B   26178.14700720 -.00000174  00000+0  00000+0 0  9990
2 54742   0.0347 120.3355 0002887 328.9772 149.8739  1.00271496 12879
GALAXY 37 (G-37)        
1 57493U 23112A   26178.10947644  .00000060  00000+0  00000+0 0  9990
2 57493   0.0155  53.7139 0002254  39.5005  94.4213  1.00271964 10648
